{
  "type": "FeatureCollection",
  "features": [
    {
      "type": "Feature",
      "properties": {
        "norad_id": 29268,
        "name": "ARIRANG-2 (KOMPSAT-2)",
        "group": "resource",
        "lat": 16.2708224525342,
        "lon": 178.27123204942336,
        "alt_km": 678.7671291488286,
        "timestamp": "2025-12-18T08:58:43.048119+00:00",
        "meta_object_name": "ARIRANG-2 (KOMPSAT-2)",
        "meta_object_id": "2006-031A",
        "meta_epoch": "2025-12-17T23:46:05.744064",
        "meta_mean_motion": 14.64498502,
        "meta_eccentricity": 0.00132663,
        "meta_inclination": 97.8258,
        "meta_ra_of_asc_node": 180.2069,
        "meta_arg_of_pericenter": 291.2319,
        "meta_mean_anomaly": 223.0896,
        "meta_ephemeris_type": 0,
        "meta_classification_type": "U",
        "meta_norad_cat_id": 29268,
        "meta_element_set_no": 999,
        "meta_rev_at_epoch": 3495,
        "meta_bstar": 5.9501654e-05,
        "meta_mean_motion_dot": 2.71e-06,
        "meta_mean_motion_ddot": 0,
        "tle_line1": "1 29268U 06031A   25351.99034426  .00000271  00000+0  59502-4 0  9994",
        "tle_line2": "2 29268  97.8258 180.2069 0013266 291.2319 223.0896 14.64498502 34953"
      },
      "geometry": {
        "type": "Point",
        "coordinates": [
          178.27123204942336,
          16.2708224525342
        ]
      }
    },
    {
      "type": "Feature",
      "properties": {
        "norad_id": 29709,
        "name": "LAPAN-TUBSAT",
        "group": "resource",
        "lat": 19.68651063435871,
        "lon": -20.28322162155132,
        "alt_km": 604.056272297049,
        "timestamp": "2025-12-18T08:58:43.048130+00:00",
        "meta_object_name": "LAPAN-TUBSAT",
        "meta_object_id": "2007-001A",
        "meta_epoch": "2025-12-17T23:11:27.893184",
        "meta_mean_motion": 14.85678949,
        "meta_eccentricity": 0.00135482,
        "meta_inclination": 98.1256,
        "meta_ra_of_asc_node": 342.2307,
        "meta_arg_of_pericenter": 58.5879,
        "meta_mean_anomaly": 301.6658,
        "meta_ephemeris_type": 0,
        "meta_classification_type": "U",
        "meta_norad_cat_id": 29709,
        "meta_element_set_no": 999,
        "meta_rev_at_epoch": 2424,
        "meta_bstar": 5.2791224e-05,
        "meta_mean_motion_dot": 4.01e-06,
        "meta_mean_motion_ddot": 0,
        "tle_line1": "1 29709U 07001A   25351.96629506  .00000401  00000+0  52791-4 0  9996",
        "tle_line2": "2 29709  98.1256 342.2307 0013548  58.5879 301.6658 14.85678949 24246"
      },
      "geometry": {
        "type": "Point",
        "coordinates": [
          -20.28322162155132,
          19.68651063435871
        ]
      }
    },
    {
      "type": "Feature",
      "properties": {
        "norad_id": 31113,
        "name": "HAIYANG-1B",
        "group": "resource",
        "lat": -56.27809137000707,
        "lon": 143.73688201370854,
        "alt_km": 803.7583091092911,
        "timestamp": "2025-12-18T08:58:43.048140+00:00",
        "meta_object_name": "HAIYANG-1B",
        "meta_object_id": "2007-010A",
        "meta_epoch": "2025-12-17T21:48:16.917696",
        "meta_mean_motion": 14.3096685,
        "meta_eccentricity": 0.00140197,
        "meta_inclination": 98.3317,
        "meta_ra_of_asc_node": 335.9732,
        "meta_arg_of_pericenter": 23.3851,
        "meta_mean_anomaly": 336.7967,
        "meta_ephemeris_type": 0,
        "meta_classification_type": "U",
        "meta_norad_cat_id": 31113,
        "meta_element_set_no": 999,
        "meta_rev_at_epoch": 97470,
        "meta_bstar": 5.3781568e-05,
        "meta_mean_motion_dot": 1e-06,
        "meta_mean_motion_ddot": 0,
        "tle_line1": "1 31113U 07010A   25351.90852914  .00000100  00000+0  53782-4 0  9990",
        "tle_line2": "2 31113  98.3317 335.9732 0014019  23.3851 336.7967 14.30966850974701"
      },
      "geometry": {
        "type": "Point",
        "coordinates": [
          143.73688201370854,
          -56.27809137000707
        ]
      }
    },
    {
      "type": "Feature",
      "properties": {
        "norad_id": 31598,
        "name": "COSMO-SKYMED 1",
        "group": "resource",
        "lat": -0.9830135020540619,
        "lon": -2.326385549163949,
        "alt_km": 583.124006560327,
        "timestamp": "2025-12-18T08:58:43.048151+00:00",
        "meta_object_name": "COSMO-SKYMED 1",
        "meta_object_id": "2007-023A",
        "meta_epoch": "2025-12-17T22:32:23.457696",
        "meta_mean_motion": 14.95805864,
        "meta_eccentricity": 0.00015612,
        "meta_inclination": 97.8835,
        "meta_ra_of_asc_node": 177.3722,
        "meta_arg_of_pericenter": 87.5282,
        "meta_mean_anomaly": 272.6117,
        "meta_ephemeris_type": 0,
        "meta_classification_type": "U",
        "meta_norad_cat_id": 31598,
        "meta_element_set_no": 999,
        "meta_rev_at_epoch": 268,
        "meta_bstar": 0.00033271996,
        "meta_mean_motion_dot": 3.654e-05,
        "meta_mean_motion_ddot": 0,
        "tle_line1": "1 31598U 07023A   25351.93916039  .00003654  00000+0  33272-3 0  9991",
        "tle_line2": "2 31598  97.8835 177.3722 0001561  87.5282 272.6117 14.95805864  2684"
      },
      "geometry": {
        "type": "Point",
        "coordinates": [
          -2.326385549163949,
          -0.9830135020540619
        ]
      }
    },
    {
      "type": "Feature",
      "properties": {
        "norad_id": 31698,
        "name": "TERRASAR-X",
        "group": "resource",
        "lat": -49.82158545853409,
        "lon": 6.582091400049945,
        "alt_km": 516.3043717824366,
        "timestamp": "2025-12-18T08:58:43.048161+00:00",
        "meta_object_name": "TERRASAR-X",
        "meta_object_id": "2007-026A",
        "meta_epoch": "2025-12-17T14:13:48.329472",
        "meta_mean_motion": 15.19149756,
        "meta_eccentricity": 0.00018426,
        "meta_inclination": 97.4455,
        "meta_ra_of_asc_node": 356.9029,
        "meta_arg_of_pericenter": 91.3746,
        "meta_mean_anomaly": 268.77,
        "meta_ephemeris_type": 0,
        "meta_classification_type": "U",
        "meta_norad_cat_id": 31698,
        "meta_element_set_no": 999,
        "meta_rev_at_epoch": 2565,
        "meta_bstar": 4.5889707e-05,
        "meta_mean_motion_dot": 8.97e-06,
        "meta_mean_motion_ddot": 0,
        "tle_line1": "1 31698U 07026A   25351.59292048  .00000897  00000+0  45890-4 0  9990",
        "tle_line2": "2 31698  97.4455 356.9029 0001842  91.3746 268.7700 15.19149756 25658"
      },
      "geometry": {
        "type": "Point",
        "coordinates": [
          6.582091400049945,
          -49.82158545853409
        ]
      }
    },
    {
      "type": "Feature",
      "properties": {
        "norad_id": 32060,
        "name": "WORLDVIEW-1 (WV-1)",
        "group": "resource",
        "lat": 63.15524002177385,
        "lon": 94.92942819339727,
        "alt_km": 484.9316327282804,
        "timestamp": "2025-12-18T08:58:43.048172+00:00",
        "meta_object_name": "WORLDVIEW-1 (WV-1)",
        "meta_object_id": "2007-041A",
        "meta_epoch": "2025-12-17T21:40:24.061728",
        "meta_mean_motion": 15.24773613,
        "meta_eccentricity": 8.956e-05,
        "meta_inclination": 97.3839,
        "meta_ra_of_asc_node": 109.3115,
        "meta_arg_of_pericenter": 116.7003,
        "meta_mean_anomaly": 243.4326,
        "meta_ephemeris_type": 0,
        "meta_classification_type": "U",
        "meta_norad_cat_id": 32060,
        "meta_element_set_no": 999,
        "meta_rev_at_epoch": 1526,
        "meta_bstar": 0.00027610113,
        "meta_mean_motion_dot": 6.773e-05,
        "meta_mean_motion_ddot": 0,
        "tle_line1": "1 32060U 07041A   25351.90305627  .00006773  00000+0  27610-3 0  9992",
        "tle_line2": "2 32060  97.3839 109.3115 0000895 116.7003 243.4326 15.24773613 15269"
      },
      "geometry": {
        "type": "Point",
        "coordinates": [
          94.92942819339727,
          63.15524002177385
        ]
      }
    },
    {
      "type": "Feature",
      "properties": {
        "norad_id": 32289,
        "name": "YAOGAN-3",
        "group": "resource",
        "lat": -82.14625449668478,
        "lon": 105.78955991572722,
        "alt_km": 606.5406534636759,
        "timestamp": "2025-12-18T08:58:43.048190+00:00",
        "meta_object_name": "YAOGAN-3",
        "meta_object_id": "2007-055A",
        "meta_epoch": "2025-12-17T23:42:32.824224",
        "meta_mean_motion": 14.8988474,
        "meta_eccentricity": 0.00013378,
        "meta_inclination": 97.8367,
        "meta_ra_of_asc_node": 18.5662,
        "meta_arg_of_pericenter": 74.3559,
        "meta_mean_anomaly": 285.7806,
        "meta_ephemeris_type": 0,
        "meta_classification_type": "U",
        "meta_norad_cat_id": 32289,
        "meta_element_set_no": 999,
        "meta_rev_at_epoch": 97887,
        "meta_bstar": 0.00018830018,
        "meta_mean_motion_dot": 1.755e-05,
        "meta_mean_motion_ddot": 0,
        "tle_line1": "1 32289U 07055A   25351.98787991  .00001755  00000+0  18830-3 0  9995",
        "tle_line2": "2 32289  97.8367  18.5662 0001337  74.3559 285.7806 14.89884740978879"
      },
      "geometry": {
        "type": "Point",
        "coordinates": [
          105.78955991572722,
          -82.14625449668478
        ]
      }
    }
  ]
}